#Pass ID: 20250124_005430_FENGYUN 3G
#Satellite: FENGYUN 3G
#Configuration: FENGYUN 3G
#Start time: 2025-01-24 00:54:35.521991

#LorettStation: 1.0.0 05.05.2024
#Station: Regia
#Location: 37.494653 lon 55.929028 lat
#TLE: 1 56232U 23055A   25023.70206718  .00047549  00000+0  76926-3 0  9997
#TLE: 2 56232  49.9955  93.3083 0019963 267.1068  92.7614 15.52079087100818

#Time	Az	El	Level	SNR
#Closed at: 2025-01-24 00:54:30.523649